CCSDS_OEM_VERS = 1.0
CREATION_DATE  = 2026-02-27T13:39:31
ORIGINATOR     = GMAT USER
META_START
OBJECT_NAME          = Code500Sat
OBJECT_ID            = SatId
CENTER_NAME          = Earth
REF_FRAME            = EME2000
TIME_SYSTEM          = UTC
START_TIME           = 2018-01-01T12:00:00.000
USEABLE_START_TIME   = 2018-01-01T12:00:00.000
USEABLE_STOP_TIME    = 2018-01-03T00:00:00.000
STOP_TIME            = 2018-01-03T00:00:00.000
INTERPOLATION        = LAGRANGE
INTERPOLATION_DEGREE = 7 
META_STOP

2018-01-02T03:52:00.000  -7.508979156301807e+04   3.247856394079170e+05   1.230159379513010e+05  -1.314713380890752e+00   2.780739265034537e-01   1.487655609946241e+00
2018-01-02T03:53:00.000  -7.516989004731504e+04   3.248043596123591e+05   1.231042033816065e+05  -1.355099274991598e+00   3.456482615653309e-01   1.453852642726346e+00
2018-01-02T03:54:00.000  -7.525238608575733e+04   3.248270814327842e+05   1.231903205513231e+05  -1.394614979166808e+00   4.114331719712551e-01   1.416065317353175e+00
2018-01-02T03:55:00.000  -7.533722457290911e+04   3.248536927257212e+05   1.232740537847726e+05  -1.433164673852825e+00   4.752705870997521e-01   1.374407535189172e+00
2018-01-02T03:56:00.000  -7.542434467657628e+04   3.248840719186562e+05   1.233551744835404e+05  -1.470655484992759e+00   5.370080157815735e-01   1.329000202072661e+00
2018-01-02T03:57:00.000  -7.551368020830907e+04   3.249180886703658e+05   1.234334613976679e+05  -1.506997257577783e+00   5.964980765175536e-01   1.279970270246448e+00
2018-01-02T03:58:00.000  -7.560515960156680e+04   3.249556038674519e+05   1.235087011392454e+05  -1.542102850610138e+00   6.535990474751808e-01   1.227451178429218e+00
2018-01-02T03:59:00.000  -7.569870614663957e+04   3.249964700536343e+05   1.235806885151895e+05  -1.575888093251309e+00   7.081747578717563e-01   1.171582429632342e+00
2018-01-02T04:00:00.000  -7.579423816965503e+04   3.250405317637424e+05   1.236492268848133e+05  -1.608271818792290e+00   7.600946329408628e-01   1.112509392852586e+00
2018-01-02T04:01:00.000  -7.589166918218885e+04   3.250876258117266e+05   1.237141285782518e+05  -1.639175985457950e+00   8.092338951193819e-01   1.050383160982798e+00
2018-01-02T04:02:00.000  -7.599090817334280e+04   3.251375817995673e+05   1.237752149864122e+05  -1.668525430008657e+00   8.554731124443966e-01   9.853602568237083e-01
2018-01-02T04:03:00.000  -7.609185968778312e+04   3.251902222938361e+05   1.238323171339617e+05  -1.696248200891413e+00   8.986987804073731e-01   9.176026128690217e-01
2018-01-02T04:04:00.000  -7.619442404666840e+04   3.252453632240343e+05   1.238852759254231e+05  -1.722275526271105e+00   9.388032542798733e-01   8.472773947595573e-01
2018-01-02T04:05:00.000  -7.629849754002268e+04   3.253028142367176e+05   1.239339424552889e+05  -1.746541873061597e+00   9.756848441830740e-01   7.745568720912176e-01
2018-01-02T04:06:00.000  -7.640397261013590e+04   3.253623790396199e+05   1.239781783827441e+05  -1.768985051176144e+00   1.009247989260546e+00   6.996182830889041e-01
2018-01-02T04:07:00.000  -7.651073809581368e+04   3.254238558245223e+05   1.240178559802012e+05  -1.789546155356085e+00   1.039403150793969e+00   6.226437567487632e-01
2018-01-02T04:08:00.000  -7.661867939368401e+04   3.254870375867697e+05   1.240528586680667e+05  -1.808169777471656e+00   1.066067174532328e+00   5.438201530702880e-01
2018-01-02T04:09:00.000  -7.672767868120442e+04   3.255517125250437e+05   1.240830812235118e+05  -1.824804057303723e+00   1.089163373140989e+00   4.633389560756023e-01
2018-01-02T04:10:00.000  -7.683761513239522e+04   3.256176644341631e+05   1.241084300542360e+05  -1.839400780350108e+00   1.108621690107907e+00   3.813961513323932e-01
2018-01-02T04:11:00.000  -7.694836513402700e+04   3.256846731050258e+05   1.241288235437599e+05  -1.851915505622072e+00   1.124378921079856e+00   2.981921713445551e-01
2018-01-02T04:12:00.000  -7.705980253365243e+04   3.257525147498514e+05   1.241441920406008e+05  -1.862307607558394e+00   1.136378761213360e+00   2.139315164006587e-01
2018-01-02T04:13:00.000  -7.717179885583023e+04   3.258209624176074e+05   1.241544783780908e+05  -1.870540473356417e+00   1.144572159640188e+00   1.288228582665452e-01
2018-01-02T04:14:00.000  -7.728422355122297e+04   3.258897864364389e+05   1.241596380368145e+05  -1.876581614746497e+00   1.148917500070523e+00   4.307881407826777e-02
2018-01-02T04:15:00.000  -7.739694424820524e+04   3.259587548666385e+05   1.241596393760490e+05  -1.880402810408194e+00   1.149380839072091e+00  -4.308422241220482e-02
2018-01-02T04:16:00.000  -7.750982702342203e+04   3.260276339951041e+05   1.241544639687354e+05  -1.881980358665321e+00   1.145936343425156e+00  -1.294461297984177e-01
2018-01-02T04:17:00.000  -7.762273663807576e+04   3.260961887292893e+05   1.241441064222941e+05  -1.881294900570412e+00   1.138565940894956e+00  -2.157837296796469e-01
2018-01-02T04:18:00.000  -7.773553685206389e+04   3.261641831879992e+05   1.241285749641165e+05  -1.878331934043860e+00   1.127260229604026e+00  -3.018705492857380e-01
2018-01-02T04:19:00.000  -7.784809070483310e+04   3.262313811931568e+05   1.241078915097802e+05  -1.873081897561664e+00   1.112018598780634e+00  -3.874772130650416e-01
2018-01-02T04:20:00.000  -7.796026081715964e+04   3.262975468060091e+05   1.240820918285559e+05  -1.865540362440477e+00   1.092849544500442e+00  -4.723717290081057e-01
2018-01-02T04:21:00.000  -7.807190976509484e+04   3.263624449974200e+05   1.240512258237430e+05  -1.855708464780048e+00   1.069771390536197e+00  -5.563198819523378e-01
2018-01-02T04:22:00.000  -7.818290020224961e+04   3.264258418358226e+05   1.240153572044255e+05  -1.843592333423676e+00   1.042811297782190e+00  -6.390853691466202e-01
2018-01-02T04:23:00.000  -7.829309540385567e+04   3.264875054740401e+05   1.239745640435187e+05  -1.829204092205690e+00   1.012006949054421e+00  -7.204304482041870e-01
2018-01-02T04:24:00.000  -7.840235955948159e+04   3.265472066538924e+05   1.239289387217385e+05  -1.812561854206375e+00   9.774065149118710e-01  -8.001163352367827e-01
2018-01-02T04:25:00.000  -7.851055813854578e+04   3.266047193451393e+05   1.238785879754003e+05  -1.793689947643131e+00   9.390690094784275e-01  -8.779037258124482e-01
2018-01-02T04:26:00.000  -7.861755840309191e+04   3.266598216398407e+05   1.238236329509288e+05  -1.772619356425900e+00   8.970649684943550e-01  -9.535539543078748e-01
2018-01-02T04:27:00.000  -7.872322934614212e+04   3.267122956371995e+05   1.237642090405653e+05  -1.749387203352569e+00   8.514756601095835e-01  -1.026827699818651e+00
2018-01-02T04:28:00.000  -7.882744255300560e+04   3.267619289426192e+05   1.237004659568736e+05  -1.724037698788303e+00   8.023945249088240e-01  -1.097487666569630e+00
2018-01-02T04:29:00.000  -7.893007248662124e+04   3.268085151540273e+05   1.236325675812669e+05  -1.696622123686138e+00   7.499271341929848e-01  -1.165298812644353e+00
2018-01-02T04:30:00.000  -7.903099691707516e+04   3.268518545971737e+05   1.235606918048922e+05  -1.667199010674396e+00   6.941914415190896e-01  -1.230029220631353e+00
2018-01-02T04:31:00.000  -7.913009751947719e+04   3.268917553336511e+05   1.234850301223670e+05  -1.635834204303587e+00   6.353177542092111e-01  -1.291451919534567e+00
2018-01-02T04:32:00.000  -7.922725978090562e+04   3.269280330334257e+05   1.234057880078493e+05  -1.602601297140039e+00   5.734496383503600e-01  -1.349342903132036e+00
2018-01-02T04:33:00.000  -7.932237399543701e+04   3.269605126260630e+05   1.233231839252216e+05  -1.567581394929049e+00   5.087432116009853e-01  -1.403485207130295e+00
2018-01-02T04:34:00.000  -7.941533556389208e+04   3.269890288084951e+05   1.232374491148736e+05  -1.530863248119982e+00   4.413673540045490e-01  -1.453669170572997e+00
2018-01-02T04:35:00.000  -7.950604545323623e+04   3.270134268095785e+05   1.231488271218694e+05  -1.492543243581302e+00   3.715036078043434e-01  -1.499693624125525e+00
2018-01-02T04:36:00.000  -7.959441072321725e+04   3.270335632357895e+05   1.230575728473552e+05  -1.452724877026457e+00   2.993451502328399e-01  -1.541367510875339e+00
2018-01-02T04:37:00.000  -7.968034473596451e+04   3.270493064949478e+05   1.229639533059237e+05  -1.411520201863349e+00   2.250993003358673e-01  -1.578509754248155e+00
2018-01-02T04:38:00.000  -7.976376783703428e+04   3.270605378260259e+05   1.228682455529545e+05  -1.369048061674703e+00   1.489842809190232e-01  -1.610951876853553e+00
2018-01-02T04:39:00.000  -7.984460771286103e+04   3.270671518956345e+05   1.227707363178985e+05  -1.325434294974873e+00   7.122950916250299e-02  -1.638538841933683e+00
2018-01-02T04:40:00.000  -7.992279980233514e+04   3.270690574529455e+05   1.226717211607791e+05  -1.280811412383207e+00  -7.925050522366988e-03  -1.661130278302252e+00
2018-01-02T04:41:00.000  -7.999828760941941e+04   3.270661777810276e+05   1.225715031665907e+05  -1.235317775117810e+00  -8.823035203382275e-02  -1.678601209308769e+00
2018-01-02T04:42:00.000  -8.007102332789276e+04   3.270584518034792e+05   1.224703932963174e+05  -1.189098621826653e+00  -1.694267113375405e-01  -1.690844704805019e+00
2018-01-02T04:43:00.000  -8.014096791393013e+04   3.270458340450262e+05   1.223687080033477e+05  -1.142304073236165e+00  -2.512471943538976e-01  -1.697771392150175e+00
2018-01-02T04:44:00.000  -8.020809146431254e+04   3.270282952367185e+05   1.222667685141459e+05  -1.095088989608211e+00  -3.334179736589382e-01  -1.699310866164297e+00
2018-01-02T04:45:00.000  -8.027237348268479e+04   3.270058226961424e+05   1.221648996620926e+05  -1.047612338459588e+00  -4.156594847755075e-01  -1.695412554999463e+00
2018-01-02T04:46:00.000  -8.033380294827769e+04   3.269784203506559e+05   1.220634284638773e+05  -1.000036402921473e+00  -4.976878029466298e-01  -1.686045884748211e+00
2018-01-02T04:47:00.000  -8.039237903937158e+04   3.269461099426494e+05   1.219626835826825e+05  -9.525264454365278e-01  -5.792154343567932e-01  -1.671202950665111e+00
